{
  "type": "FeatureCollection",
  "features": [
    {
      "type": "Feature",
      "id": 1,
      "properties": {
        "name": "Chennai Zone A (Nearshore)",
        "code": "CH-A"
      },
      "geometry": {
        "type": "Polygon",
        "coordinates": [
          [
            [
              80.14999999999999,
              12.85
            ],
            [
              80.45,
              12.85
            ],
            [
              80.45,
              13.15
            ],
            [
              80.14999999999999,
              13.15
            ],
            [
              80.14999999999999,
              12.85
            ]
          ]
        ]
      }
    },
    {
      "type": "Feature",
      "id": 2,
      "properties": {
        "name": "Chennai Zone B (Shelf)",
        "code": "CH-B"
      },
      "geometry": {
        "type": "Polygon",
        "coordinates": [
          [
            [
              80.44999999999999,
              12.95
            ],
            [
              80.75,
              12.95
            ],
            [
              80.75,
              13.25
            ],
            [
              80.44999999999999,
              13.25
            ],
            [
              80.44999999999999,
              12.95
            ]
          ]
        ]
      }
    },
    {
      "type": "Feature",
      "id": 3,
      "properties": {
        "name": "Chennai Zone C (Deep Sea)",
        "code": "CH-C"
      },
      "geometry": {
        "type": "Polygon",
        "coordinates": [
          [
            [
              80.85,
              13.049999999999999
            ],
            [
              81.15,
              13.049999999999999
            ],
            [
              81.15,
              13.35
            ],
            [
              80.85,
              13.35
            ],
            [
              80.85,
              13.049999999999999
            ]
          ]
        ]
      }
    },
    {
      "type": "Feature",
      "id": 4,
      "properties": {
        "name": "Arabian Sea North",
        "code": "REG-3"
      },
      "geometry": {
        "type": "Polygon",
        "coordinates": [
          [
            [
              63.5,
              18.5
            ],
            [
              66.5,
              18.5
            ],
            [
              66.5,
              21.5
            ],
            [
              63.5,
              21.5
            ],
            [
              63.5,
              18.5
            ]
          ]
        ]
      }
    },
    {
      "type": "Feature",
      "id": 5,
      "properties": {
        "name": "Bay of Bengal South",
        "code": "REG-4"
      },
      "geometry": {
        "type": "Polygon",
        "coordinates": [
          [
            [
              83.5,
              6.5
            ],
            [
              86.5,
              6.5
            ],
            [
              86.5,
              9.5
            ],
            [
              83.5,
              9.5
            ],
            [
              83.5,
              6.5
            ]
          ]
        ]
      }
    }
  ]
}